sat14452
1 14452U 83109A   20046.77973801 -.00000002  00000-0 -61309-5 0  9999
2 14452  81.1632 173.5450 0091877  76.7082 284.4324 14.26496177887542
